[{"OBJECT_NAME":"TIANQI-29","OBJECT_ID":"2024-170A","EPOCH":"2026-03-09T20:46:41.243232","MEAN_MOTION":13.99108812,"ECCENTRICITY":0.00055066,"INCLINATION":44.8559,"RA_OF_ASC_NODE":219.5799,"ARG_OF_PERICENTER":342.0099,"MEAN_ANOMALY":18.0536,"EPHEMERIS_TYPE":0,"CLASSIFICATION_TYPE":"U","NORAD_CAT_ID":61195,"ELEMENT_SET_NO":999,"REV_AT_EPOCH":7495,"BSTAR":0.00015072092,"MEAN_MOTION_DOT":9.2e-7,"MEAN_MOTION_DDOT":0},{"OBJECT_NAME":"FENGYUN 1C DEB","OBJECT_ID":"1999-025EHE","EPOCH":"2026-03-07T08:53:29.585184","MEAN_MOTION":14.06518883,"ECCENTRICITY":0.00581251,"INCLINATION":98.9248,"RA_OF_ASC_NODE":124.7433,"ARG_OF_PERICENTER":271.7859,"MEAN_ANOMALY":87.6652,"EPHEMERIS_TYPE":0,"CLASSIFICATION_TYPE":"U","NORAD_CAT_ID":37436,"ELEMENT_SET_NO":999,"REV_AT_EPOCH":65188,"BSTAR":0.00072806683,"MEAN_MOTION_DOT":1.179e-5,"MEAN_MOTION_DDOT":0}]
